{
    "links": {
        "self": "http://www.neowsapp.com/rest/v1/neo/54016372?api_key=iIulBulltgU6a56xZRHN4H3l9WmuAYTsLGpBGhQ2"
    },
    "id": "54016372",
    "neo_reference_id": "54016372",
    "name": "(2020 FJ5)",
    "designation": "2020 FJ5",
    "nasa_jpl_url": "http://ssd.jpl.nasa.gov/sbdb.cgi?sstr=54016372",
    "absolute_magnitude_h": 26.003,
    "estimated_diameter": {
        "kilometers": {
            "estimated_diameter_min": 0.0167476924,
            "estimated_diameter_max": 0.0374489787
        },
        "meters": {
            "estimated_diameter_min": 16.7476924337,
            "estimated_diameter_max": 37.4489787481
        },
        "miles": {
            "estimated_diameter_min": 0.0104065304,
            "estimated_diameter_max": 0.0232697094
        },
        "feet": {
            "estimated_diameter_min": 54.9464992443,
            "estimated_diameter_max": 122.8641074359
        }
    },
    "is_potentially_hazardous_asteroid": false,
    "close_approach_data": [
        {
            "close_approach_date": "2015-12-30",
            "close_approach_date_full": "2015-Dec-30 20:17",
            "epoch_date_close_approach": 1451506620000,
            "relative_velocity": {
                "kilometers_per_second": "17.5813666394",
                "kilometers_per_hour": "63292.9199017558",
                "miles_per_hour": "39327.7590356215"
            },
            "miss_distance": {
                "astronomical": "0.410312815",
                "lunar": "159.611685035",
                "kilometers": "61381923.15770405",
                "miles": "38140958.43045389"
            },
            "orbiting_body": "Earth"
        },
        {
            "close_approach_date": "2020-03-21",
            "close_approach_date_full": "2020-Mar-21 12:10",
            "epoch_date_close_approach": 1584792600000,
            "relative_velocity": {
                "kilometers_per_second": "8.0562375884",
                "kilometers_per_hour": "29002.4553182475",
                "miles_per_hour": "18020.9978614966"
            },
            "miss_distance": {
                "astronomical": "0.0200723223",
                "lunar": "7.8081333747",
                "kilometers": "3002776.662033501",
                "miles": "1865838.8976882738"
            },
            "orbiting_body": "Earth"
        },
        {
            "close_approach_date": "2022-04-17",
            "close_approach_date_full": "2022-Apr-17 09:53",
            "epoch_date_close_approach": 1650189180000,
            "relative_velocity": {
                "kilometers_per_second": "15.3732478411",
                "kilometers_per_hour": "55343.6922277962",
                "miles_per_hour": "34388.4180956548"
            },
            "miss_distance": {
                "astronomical": "0.2862892355",
                "lunar": "111.3665126095",
                "kilometers": "42828259.834728385",
                "miles": "26612246.635026313"
            },
            "orbiting_body": "Earth"
        }
    ],
    "orbital_data": {
        "orbit_id": "1",
        "orbit_determination_date": "2020-03-25 21:12:06",
        "first_observation_date": "2020-03-23",
        "last_observation_date": "2020-03-25",
        "data_arc_in_days": 2,
        "observations_used": 39,
        "orbit_uncertainty": "8",
        "minimum_orbit_intersection": ".0188606",
        "jupiter_tisserand_invariant": "4.239",
        "epoch_osculation": "2458932.5",
        "eccentricity": ".39201096837522",
        "semi_major_axis": "1.612190661260727",
        "inclination": "9.174099677820404",
        "ascending_node_longitude": "3.840697428710936",
        "orbital_period": "747.6925073319461",
        "perihelion_distance": ".980194238934423",
        "perihelion_argument": "149.0211239315868",
        "aphelion_distance": "2.244187083587031",
        "perihelion_time": "2458906.288215380597",
        "mean_anomaly": "12.62048552105627",
        "mean_motion": ".4814813529222303",
        "equinox": "J2000",
        "orbit_class": {
            "orbit_class_type": "APO",
            "orbit_class_description": "Near-Earth asteroid orbits which cross the Earth’s orbit similar to that of 1862 Apollo",
            "orbit_class_range": "a (semi-major axis) > 1.0 AU; q (perihelion) < 1.017 AU"
        }
    },
    "is_sentry_object": false
}